{
  "type": "FeatureCollection",
  "features": [
    {
      "type": "Feature",
      "properties": {
        "norad_id": 64751,
        "name": "PROGRESS-MS 31",
        "group": "stations",
        "lat": -22.613897165822358,
        "lon": -83.24562023578348,
        "alt_km": 420.45453480794913,
        "timestamp": "2025-12-25T20:42:37.443489+00:00",
        "meta_object_name": "PROGRESS-MS 31",
        "meta_object_id": "2025-146A",
        "meta_epoch": "2025-12-25T05:52:58.411200",
        "meta_mean_motion": 15.49803499,
        "meta_eccentricity": 0.00032029,
        "meta_inclination": 51.6316,
        "meta_ra_of_asc_node": 80.5467,
        "meta_arg_of_pericenter": 298.8467,
        "meta_mean_anomaly": 61.22,
        "meta_ephemeris_type": 0,
        "meta_classification_type": "U",
        "meta_norad_cat_id": 64751,
        "meta_element_set_no": 999,
        "meta_rev_at_epoch": 675,
        "meta_bstar": 0.00025322562,
        "meta_mean_motion_dot": 0.00013923,
        "meta_mean_motion_ddot": 0,
        "tle_line1": "1 64751U 25146A   25359.24512050  .00013923  00000+0  25323-3 0  9999",
        "tle_line2": "2 64751  51.6316  80.5467 0003202 298.8467  61.2200 15.49803499  6759"
      },
      "geometry": {
        "type": "Point",
        "coordinates": [
          -83.24562023578348,
          -22.613897165822358
        ]
      }
    },
    {
      "type": "Feature",
      "properties": {
        "norad_id": 64786,
        "name": "TIANZHOU-9",
        "group": "stations",
        "lat": 38.236649665162524,
        "lon": 53.8455163941806,
        "alt_km": 377.661414294972,
        "timestamp": "2025-12-25T20:42:37.443499+00:00",
        "meta_object_name": "TIANZHOU-9",
        "meta_object_id": "2025-149A",
        "meta_epoch": "2025-12-25T04:52:13.170144",
        "meta_mean_motion": 15.59668525,
        "meta_eccentricity": 0.0008299,
        "meta_inclination": 41.4684,
        "meta_ra_of_asc_node": 301.0153,
        "meta_arg_of_pericenter": 140.7074,
        "meta_mean_anomaly": 219.4368,
        "meta_ephemeris_type": 0,
        "meta_classification_type": "U",
        "meta_norad_cat_id": 64786,
        "meta_element_set_no": 999,
        "meta_rev_at_epoch": 25530,
        "meta_bstar": 0.00024182625,
        "meta_mean_motion_dot": 0.000196,
        "meta_mean_motion_ddot": 0,
        "tle_line1": "1 64786U 25149A   25359.20293021  .00019600  00000+0  24183-3 0  9991",
        "tle_line2": "2 64786  41.4684 301.0153 0008299 140.7074 219.4368 15.59668525255304"
      },
      "geometry": {
        "type": "Point",
        "coordinates": [
          53.8455163941806,
          38.236649665162524
        ]
      }
    },
    {
      "type": "Feature",
      "properties": {
        "norad_id": 65077,
        "name": "CREW DRAGON 11",
        "group": "stations",
        "lat": -22.613898121303926,
        "lon": -83.24561929587666,
        "alt_km": 420.45453483577785,
        "timestamp": "2025-12-25T20:42:37.443509+00:00",
        "meta_object_name": "CREW DRAGON 11",
        "meta_object_id": "2025-166A",
        "meta_epoch": "2025-12-25T05:52:58.411200",
        "meta_mean_motion": 15.49803499,
        "meta_eccentricity": 0.00032029,
        "meta_inclination": 51.6316,
        "meta_ra_of_asc_node": 80.5467,
        "meta_arg_of_pericenter": 298.8467,
        "meta_mean_anomaly": 61.22,
        "meta_ephemeris_type": 0,
        "meta_classification_type": "U",
        "meta_norad_cat_id": 65077,
        "meta_element_set_no": 999,
        "meta_rev_at_epoch": 214,
        "meta_bstar": 0.00025322562,
        "meta_mean_motion_dot": 0.00013923,
        "meta_mean_motion_ddot": 0,
        "tle_line1": "1 65077U 25166A   25359.24512050  .00013923  00000+0  25323-3 0  9993",
        "tle_line2": "2 65077  51.6316  80.5467 0003202 298.8467  61.2200 15.49803499  2140"
      },
      "geometry": {
        "type": "Point",
        "coordinates": [
          -83.24561929587666,
          -22.613898121303926
        ]
      }
    },
    {
      "type": "Feature",
      "properties": {
        "norad_id": 65304,
        "name": "DRAGON CRS-33",
        "group": "stations",
        "lat": -22.613898742367134,
        "lon": -83.24561868493703,
        "alt_km": 420.4545348538668,
        "timestamp": "2025-12-25T20:42:37.443522+00:00",
        "meta_object_name": "DRAGON CRS-33",
        "meta_object_id": "2025-186A",
        "meta_epoch": "2025-12-25T05:52:58.411200",
        "meta_mean_motion": 15.49803499,
        "meta_eccentricity": 0.00032029,
        "meta_inclination": 51.6316,
        "meta_ra_of_asc_node": 80.5467,
        "meta_arg_of_pericenter": 298.8467,
        "meta_mean_anomaly": 61.22,
        "meta_ephemeris_type": 0,
        "meta_classification_type": "U",
        "meta_norad_cat_id": 65304,
        "meta_element_set_no": 999,
        "meta_rev_at_epoch": 11,
        "meta_bstar": 0.00025322562,
        "meta_mean_motion_dot": 0.00013923,
        "meta_mean_motion_ddot": 0,
        "tle_line1": "1 65304U 25186A   25359.24512050  .00013923  00000+0  25323-3 0  9998",
        "tle_line2": "2 65304  51.6316  80.5467 0003202 298.8467  61.2200 15.49803499   118"
      },
      "geometry": {
        "type": "Point",
        "coordinates": [
          -83.24561868493703,
          -22.613898742367134
        ]
      }
    },
    {
      "type": "Feature",
      "properties": {
        "norad_id": 65586,
        "name": "PROGRESS-MS 32",
        "group": "stations",
        "lat": -22.61389926788207,
        "lon": -83.24561816798817,
        "alt_km": 420.45453486916995,
        "timestamp": "2025-12-25T20:42:37.443533+00:00",
        "meta_object_name": "PROGRESS-MS 32",
        "meta_object_id": "2025-204A",
        "meta_epoch": "2025-12-25T05:52:58.411200",
        "meta_mean_motion": 15.49803499,
        "meta_eccentricity": 0.00032029,
        "meta_inclination": 51.6316,
        "meta_ra_of_asc_node": 80.5467,
        "meta_arg_of_pericenter": 298.8467,
        "meta_mean_anomaly": 61.22,
        "meta_ephemeris_type": 0,
        "meta_classification_type": "U",
        "meta_norad_cat_id": 65586,
        "meta_element_set_no": 999,
        "meta_rev_at_epoch": 27,
        "meta_bstar": 0.00025322562,
        "meta_mean_motion_dot": 0.00013923,
        "meta_mean_motion_ddot": 0,
        "tle_line1": "1 65586U 25204A   25359.24512050  .00013923  00000+0  25323-3 0  9991",
        "tle_line2": "2 65586  51.6316  80.5467 0003202 298.8467  61.2200 15.49803499   277"
      },
      "geometry": {
        "type": "Point",
        "coordinates": [
          -83.24561816798817,
          -22.61389926788207
        ]
      }
    },
    {
      "type": "Feature",
      "properties": {
        "norad_id": 65616,
        "name": "CYGNUS NG-23",
        "group": "stations",
        "lat": -22.613899745623424,
        "lon": -83.2456176980342,
        "alt_km": 420.4545348830852,
        "timestamp": "2025-12-25T20:42:37.443543+00:00",
        "meta_object_name": "CYGNUS NG-23",
        "meta_object_id": "2025-208A",
        "meta_epoch": "2025-12-25T05:52:58.411200",
        "meta_mean_motion": 15.49803499,
        "meta_eccentricity": 0.00032029,
        "meta_inclination": 51.6316,
        "meta_ra_of_asc_node": 80.5467,
        "meta_arg_of_pericenter": 298.8467,
        "meta_mean_anomaly": 61.22,
        "meta_ephemeris_type": 0,
        "meta_classification_type": "U",
        "meta_norad_cat_id": 65616,
        "meta_element_set_no": 999,
        "meta_rev_at_epoch": 22,
        "meta_bstar": 0.00025322562,
        "meta_mean_motion_dot": 0.00013923,
        "meta_mean_motion_ddot": 0,
        "tle_line1": "1 65616U 25208A   25359.24512050  .00013923  00000+0  25323-3 0  9999",
        "tle_line2": "2 65616  51.6316  80.5467 0003202 298.8467  61.2200 15.49803499   226"
      },
      "geometry": {
        "type": "Point",
        "coordinates": [
          -83.2456176980342,
          -22.613899745623424
        ]
      }
    },
    {
      "type": "Feature",
      "properties": {
        "norad_id": 65729,
        "name": "DRAGONFLY",
        "group": "stations",
        "lat": -51.316257110738164,
        "lon": -29.88175097162227,
        "alt_km": 344.6711927078077,
        "timestamp": "2025-12-25T20:42:37.443553+00:00",
        "meta_object_name": "DRAGONFLY",
        "meta_object_id": "1998-067XH",
        "meta_epoch": "2025-12-24T22:17:24.636768",
        "meta_mean_motion": 15.7614965,
        "meta_eccentricity": 0.0008056,
        "meta_inclination": 51.6251,
        "meta_ra_of_asc_node": 73.1569,
        "meta_arg_of_pericenter": 349.7528,
        "meta_mean_anomaly": 10.3306,
        "meta_ephemeris_type": 0,
        "meta_classification_type": "U",
        "meta_norad_cat_id": 65729,
        "meta_element_set_no": 999,
        "meta_rev_at_epoch": 1508,
        "meta_bstar": 0.0012603851,
        "meta_mean_motion_dot": 0.00206057,
        "meta_mean_motion_ddot": 0,
        "tle_line1": "1 65729U 98067XH  25358.92875737  .00206057  00000+0  12604-2 0  9994",
        "tle_line2": "2 65729  51.6251  73.1569 0008056 349.7528  10.3306 15.76149650 15080"
      },
      "geometry": {
        "type": "Point",
        "coordinates": [
          -29.88175097162227,
          -51.316257110738164
        ]
      }
    }
  ]
}